$$SOE
2460721.500000000, A.D. 2025-Feb-15 00:00:00.0000, -3.238432030021926E+08, 2.238270553138118E+08, -7.993710170583388E+07,
2460728.500000000, A.D. 2025-Feb-22 00:00:00.0000, -3.334882685584499E+08, 2.198586642739038E+08, -7.925038445566437E+07,
2460735.500000000, A.D. 2025-Mar-01 00:00:00.0000, -3.428935521942712E+08, 2.157321649585369E+08, -7.850667334590149E+07,
2460742.500000000, A.D. 2025-Mar-08 00:00:00.0000, -3.520618815036044E+08, 2.114565615987105E+08, -7.770870080398142E+07,
2460749.500000000, A.D. 2025-Mar-15 00:00:00.0000, -3.609960910469256E+08, 2.070403221641478E+08, -7.685904444256295E+07,
2460756.500000000, A.D. 2025-Mar-22 00:00:00.0000, -3.696990105675869E+08, 2.024914202667967E+08, -7.596013810972112E+07,
2460763.500000000, A.D. 2025-Mar-29 00:00:00.0000, -3.781734543326089E+08, 1.978173712010677E+08, -7.501428232681376E+07,
2460770.500000000, A.D. 2025-Apr-05 00:00:00.0000, -3.864222108749153E+08, 1.930252655965617E+08, -7.402365396622580E+07,
2460777.500000000, A.D. 2025-Apr-12 00:00:00.0000, -3.944480347314534E+08, 1.881218010952980E+08, -7.299031505786201E+07,
2460784.500000000, A.D. 2025-Apr-19 00:00:00.0000, -4.022536400844698E+08, 1.831133114531876E+08, -7.191622084696153E+07,
2460791.500000000, A.D. 2025-Apr-26 00:00:00.0000, -4.098416957965769E+08, 1.780057931157436E+08, -7.080322720558500E+07,
2460798.500000000, A.D. 2025-May-03 00:00:00.0000, -4.172148215254859E+08, 1.728049295143138E+08, -6.965309746195982E+07,
2460805.500000000, A.D. 2025-May-10 00:00:00.0000, -4.243755847213361E+08, 1.675161132960477E+08, -6.846750870030531E+07,
2460812.500000000, A.D. 2025-May-17 00:00:00.0000, -4.313264983281270E+08, 1.621444666311620E+08, -6.724805758429597E+07,
2460819.500000000, A.D. 2025-May-24 00:00:00.0000, -4.380700188957806E+08, 1.566948597097147E+08, -6.599626576695010E+07,
2460826.500000000, A.D. 2025-May-31 00:00:00.0000, -4.446085445839788E+08, 1.511719278892594E+08, -6.471358493841880E+07,
2460833.500000000, A.D. 2025-Jun-07 00:00:00.0000, -4.509444133733312E+08, 1.455800888336669E+08, -6.340140141153909E+07,
2460840.500000000, A.D. 2025-Jun-14 00:00:00.0000, -4.570799037771837E+08, 1.399235590986653E+08, -6.206104011500094E+07,
2460847.500000000, A.D. 2025-Jun-21 00:00:00.0000, -4.630172367774120E+08, 1.342063670045458E+08, -6.069376840252824E+07,
2460854.500000000, A.D. 2025-Jun-28 00:00:00.0000, -4.687585758029898E+08, 1.284323636617608E+08, -5.930079984674904E+07,
2460861.500000000, A.D. 2025-Jul-05 00:00:00.0000, -4.743060262227370E+08, 1.226052343952930E+08, -5.788329772581910E+07,
2460868.500000000, A.D. 2025-Jul-12 00:00:00.0000, -4.796616355069349E+08, 1.167285098434778E+08, -5.644237818139897E+07,
2460875.500000000, A.D. 2025-Jul-19 00:00:00.0000, -4.848273938377686E+08, 1.108055762307440E+08, -5.497911313250100E+07,
2460882.500000000, A.D. 2025-Jul-26 00:00:00.0000, -4.898052349321042E+08, 1.048396848253363E+08, -5.349453298710027E+07,
2460889.500000000, A.D. 2025-Aug-02 00:00:00.0000, -4.945970369884627E+08, 9.883396066470341E+07, -5.198962917201220E+07,
2460896.500000000, A.D. 2025-Aug-09 00:00:00.0000, -4.992046237155685E+08, 9.279141058922358E+07, -5.046535649918927E+07,
2460903.500000000, A.D. 2025-Aug-16 00:00:00.0000, -5.036297653493806E+08, 8.671493057133347E+07, -4.892263539414933E+07,
2460910.500000000, A.D. 2025-Aug-23 00:00:00.0000, -5.078741793523175E+08, 8.060731240230487E+07, -4.736235402428569E+07,
2460917.500000000, A.D. 2025-Aug-30 00:00:00.0000, -5.119395304541104E+08, 7.447125049225309E+07, -4.578537031000909E+07,
2460924.500000000, A.D. 2025-Sep-06 00:00:00.0000, -5.158274314427850E+08, 6.830934982115647E+07, -4.419251361709709E+07,
2460931.500000000, A.D. 2025-Sep-13 00:00:00.0000, -5.195394463694462E+08, 6.212413259228919E+07, -4.258458618944113E+07,
2460938.500000000, A.D. 2025-Sep-20 00:00:00.0000, -5.230770928878534E+08, 5.591804197589175E+07, -4.096236476545484E+07,
2460945.500000000, A.D. 2025-Sep-27 00:00:00.0000, -5.264418426637965E+08, 4.969344608405443E+07, -3.932660222848007E+07,
2460952.500000000, A.D. 2025-Oct-04 00:00:00.0000, -5.296351218656950E+08, 4.345264274184189E+07, -3.767802906917988E+07,
2460959.500000000, A.D. 2025-Oct-11 00:00:00.0000, -5.326583121070215E+08, 3.719786413552334E+07, -3.601735470953349E+07,
2460966.500000000, A.D. 2025-Oct-18 00:00:00.0000, -5.355127515544877E+08, 3.093128108628157E+07, -3.434526874316357E+07,
2460973.500000000, A.D. 2025-Oct-25 00:00:00.0000, -5.381997360598156E+08, 2.465500698167481E+07, -3.266244210955510E+07,
2460980.500000000, A.D. 2025-Nov-01 00:00:00.0000, -5.407205202728698E+08, 1.837110139975207E+07, -3.096952820968212E+07,
2460987.500000000, A.D. 2025-Nov-08 00:00:00.0000, -5.430763186990056E+08, 1.208157341187797E+07, -2.926716397358333E+07,
2460994.500000000, A.D. 2025-Nov-15 00:00:00.0000, -5.452683065507976E+08, 5.788384521318305E+06, -2.755597090279705E+07,
2461001.500000000, A.D. 2025-Nov-22 00:00:00.0000, -5.472976199904290E+08, -5.065485282115918E+05, -2.583655611098845E+07,
2461008.500000000, A.D. 2025-Nov-29 00:00:00.0000, -5.491653559158074E+08, -6.801349925977983E+06, -2.410951326015752E+07,
2461015.500000000, A.D. 2025-Dec-06 00:00:00.0000, -5.508725735685601E+08, -1.309418007341028E+07, -2.237542319864633E+07,
2461022.500000000, A.D. 2025-Dec-13 00:00:00.0000, -5.524202975318754E+08, -1.938323332741154E+07, -2.063485461988380E+07,
2461029.500000000, A.D. 2025-Dec-20 00:00:00.0000, -5.538095186258817E+08, -2.566673717251017E+07, -1.888836498185090E+07,
2461036.500000000, A.D. 2025-Dec-27 00:00:00.0000, -5.550411937735984E+08, -3.194295021944514E+07, -1.713650137972035E+07,
2461043.500000000, A.D. 2026-Jan-03 00:00:00.0000, -5.561162462961622E+08, -3.821015963622835E+07, -1.537980129073283E+07,
2461050.500000000, A.D. 2026-Jan-10 00:00:00.0000, -5.570355665280521E+08, -4.446667868163326E+07, -1.361879325936130E+07,
2461057.500000000, A.D. 2026-Jan-17 00:00:00.0000, -5.578000125204229E+08, -5.071084442382002E+07, -1.185399755386123E+07,
2461064.500000000, A.D. 2026-Jan-24 00:00:00.0000, -5.584104107551048E+08, -5.694101561292951E+07, -1.008592680156762E+07,
2461071.500000000, A.D. 2026-Jan-31 00:00:00.0000, -5.588675568462640E+08, -6.315557070706172E+07, -8.315086607616425E+06,
2461078.500000000, A.D. 2026-Feb-07 00:00:00.0000, -5.591722161687524E+08, -6.935290610145934E+07, -6.541976169223666E+06,
2461085.500000000, A.D. 2026-Feb-14 00:00:00.0000, -5.593251241607026E+08, -7.553143456906807E+07, -4.767088911692668E+06,
2461092.500000000, A.D. 2026-Feb-21 00:00:00.0000, -5.593269859133788E+08, -8.168958332870714E+07, -2.990913136149853E+06,
2461099.500000000, A.D. 2026-Feb-28 00:00:00.0000, -5.591784761335971E+08, -8.782579058121777E+07, -1.213932486794621E+06,
2461106.500000000, A.D. 2026-Mar-07 00:00:00.0000, -5.588802415381739E+08, -9.393850245820598E+07, 5.633737902464569E+05,
2461113.500000000, A.D. 2026-Mar-14 00:00:00.0000, -5.584329029063135E+08, -1.000261727108514E+08, 2.340530349781506E+06,
2461120.500000000, A.D. 2026-Mar-21 00:00:00.0000, -5.578370550078480E+08, -1.060872622351059E+08, 4.117065084184147E+06,
2461127.500000000, A.D. 2026-Mar-28 00:00:00.0000, -5.570932664164760E+08, -1.121202373995362E+08, 5.892508560967743E+06,
2461134.500000000, A.D. 2026-Apr-04 00:00:00.0000, -5.562020798118985E+08, -1.181235681372879E+08, 7.666393536532238E+06,
2461141.500000000, A.D. 2026-Apr-11 00:00:00.0000, -5.551640124977678E+08, -1.240957261581763E+08, 9.438254490357608E+06,
2461148.500000000, A.D. 2026-Apr-18 00:00:00.0000, -5.539795569770607E+08, -1.300351832836037E+08, 1.120762716338614E+07,
2461155.500000000, A.D. 2026-Apr-25 00:00:00.0000, -5.526491815397758E+08, -1.359404098856720E+08, 1.297404809655056E+07,
2461162.500000000, A.D. 2026-May-02 00:00:00.0000, -5.511733308329785E+08, -1.418098734563185E+08, 1.473705416319078E+07,
2461169.500000000, A.D. 2026-May-09 00:00:00.0000, -5.495524262894183E+08, -1.476420373689435E+08, 1.649618207749902E+07,
2461176.500000000, A.D. 2026-May-16 00:00:00.0000, -5.477868660377055E+08, -1.534353596903450E+08, 1.825096785459965E+07,
2461183.500000000, A.D. 2026-May-23 00:00:00.0000, -5.458770242431310E+08, -1.591882910166357E+08, 2.000094629998661E+07,
2461190.500000000, A.D. 2026-May-30 00:00:00.0000, -5.438232519585124E+08, -1.648992710097461E+08, 2.174565074390203E+07,
2461197.500000000, A.D. 2026-Jun-06 00:00:00.0000, -5.416258798040094E+08, -1.705667269044462E+08, 2.348461278099291E+07,
2461204.500000000, A.D. 2026-Jun-13 00:00:00.0000, -5.392852188120455E+08, -1.761890737826728E+08, 2.521736169404245E+07,
2461211.500000000, A.D. 2026-Jun-20 00:00:00.0000, -5.368015599393701E+08, -1.817647136839360E+08, 2.694342384557843E+07,
2461218.500000000, A.D. 2026-Jun-27 00:00:00.0000, -5.341751739446712E+08, -1.872920338868835E+08, 2.866232216388682E+07,
2461225.500000000, A.D. 2026-Jul-04 00:00:00.0000, -5.314063116320993E+08, -1.927694051327569E+08, 3.037357565850444E+07,
2461232.500000000, A.D. 2026-Jul-11 00:00:00.0000, -5.284952042075565E+08, -1.981951799187934E+08, 3.207669892947410E+07,
2461239.500000000, A.D. 2026-Jul-18 00:00:00.0000, -5.254420636563240E+08, -2.035676908320583E+08, 3.377120166231669E+07,
2461246.500000000, A.D. 2026-Jul-25 00:00:00.0000, -5.222470831194395E+08, -2.088852489171298E+08, 3.545658810509023E+07,
2461253.500000000, A.D. 2026-Aug-01 00:00:00.0000, -5.189104372230960E+08, -2.141461421215411E+08, 3.713235651761632E+07,
2461260.500000000, A.D. 2026-Aug-08 00:00:00.0000, -5.154322821487783E+08, -2.193486338500857E+08, 3.879799856868698E+07,
2461267.500000000, A.D. 2026-Aug-15 00:00:00.0000, -5.118127550315975E+08, -2.244909611722218E+08, 4.045299867842834E+07,
2461274.500000000, A.D. 2026-Aug-22 00:00:00.0000, -5.080519734500067E+08, -2.295713314555131E+08, 4.209683347379024E+07,
2461281.500000000, A.D. 2026-Aug-29 00:00:00.0000, -5.041500372980732E+08, -2.345879187921742E+08, 4.372897145317523E+07,
$$EOE